OBJECT_NAME,OBJECT_ID,EPOCH,MEAN_MOTION,ECCENTRICITY,INCLINATION,RA_OF_ASC_NODE,ARG_OF_PERICENTER,MEAN_ANOMALY,EPHEMERIS_TYPE,CLASSIFICATION_TYPE,NORAD_CAT_ID,ELEMENT_SET_NO,REV_AT_EPOCH,BSTAR,MEAN_MOTION_DOT,MEAN_MOTION_DDOT
SL-16 R/B,1994-077B,2026-07-18T01:42:50.789088,14.15574519,.00041187,70.9821,78.1883,301.2180,58.8538,0,U,23405,999,63468,.69776882E-4,.89E-6,0
ARIANE 40+ R/B,1995-021B,2026-07-18T04:19:16.105728,14.39848539,.00079569,98.4399,268.8052,108.9553,276.7248,0,U,23561,999,63802,.49199224E-4,.111E-5,0
SL-16 R/B,1995-058B,2026-07-18T13:54:15.732864,14.15510629,.00146469,71.0207,265.4502,278.4397,81.5065,0,U,23705,999,58637,.16783338E-3,.281E-5,0
SL-16 R/B,1996-051B,2026-07-18T06:18:16.434144,14.12457729,.00180024,70.7644,258.8856,294.1271,65.7966,0,U,24298,999,54008,.10460808E-3,.144E-5,0
ORBVIEW 2 (SEASTAR),1997-037A,2026-07-18T10:53:58.256736,14.35567659,.00029787,98.8717,7.3443,54.3716,305.7745,0,U,24883,999,52723,.45971368E-4,.86E-6,0
SL-16 R/B,1998-043G,2026-07-18T07:18:28.622016,14.26073003,.00098813,98.8380,153.7345,2.6266,357.4963,0,U,25400,999,45760,.21643989E-4,.6E-7,0
SL-16 R/B,1998-045B,2026-07-18T07:32:23.166528,14.16204898,.00080152,71.0104,266.8694,201.8872,158.1910,0,U,25407,999,44559,-.341074E-6,-.48E-6,0
ISS (ZARYA),1998-067A,2026-07-18T08:19:37.838208,15.49039991,.00068033,51.6316,145.8895,309.9700,50.0690,0,U,25544,999,57658,.75523865E-4,.3718E-4,0
CZ-4B R/B,1999-025C,2026-07-18T14:56:30.721920,14.18288059,.00364702,98.6470,240.6675,329.7399,195.3137,0,U,25732,999,40672,.22515655E-4,.3E-7,0
OKEAN-O,1999-039A,2026-07-18T15:21:47.165472,14.80499452,.00008887,97.9298,258.0741,94.7843,265.3471,0,U,25860,999,45376,.35842805E-4,.222E-5,0
SL-16 R/B,1999-039B,2026-07-18T15:11:08.583936,14.81872564,.00145884,97.9820,258.4033,187.0138,173.0873,0,U,25861,999,45625,.30238416E-4,.185E-5,0
DELTA 2 R/B,1999-041E,2026-07-18T05:57:34.615584,14.12092267,.05014428,51.7611,139.6966,13.7707,347.6344,0,U,25876,999,38147,.18225831E-3,.891E-5,0
HELIOS 1B,1999-064A,2026-07-18T05:52:46.017120,14.88079116,.00017772,98.1580,105.2802,51.4101,308.7273,0,U,25977,999,70467,.68857007E-4,.575E-5,0
TERRA,1999-068A,2026-07-18T14:33:30.094848,14.61125153,.00035363,97.9439,247.9044,116.1345,44.6257,0,U,25994,999,41419,.39701545E-4,.151E-5,0
SL-16 R/B,2000-006B,2026-07-18T08:43:17.004000,14.15838129,.00173183,71.0003,183.0713,335.6413,24.3890,0,U,26070,999,36705,.52811018E-4,.56E-6,0
TITAN 4B R/B,2000-047B,2026-07-18T14:01:10.863264,15.10342091,.00457415,67.9873,32.1857,255.3928,104.2148,0,U,26474,999,41267,.77322283E-4,.1159E-4,0
ENVISAT,2002-009A,2026-07-18T08:17:44.269728,14.39071131,.00013131,98.3848,149.9720,83.0941,64.7032,0,U,27386,999,27796,.21204766E-4,.23E-6,0
IDEFIX & ARIANE 42P R/B,2002-021B,2026-07-18T14:12:42.972192,14.31094524,.00121197,98.5941,136.7359,156.5813,203.5925,0,U,27422,999,26274,.45001801E-4,.75E-6,0
AQUA,2002-022A,2026-07-18T14:24:03.843072,14.62131087,.00012523,98.4299,169.5150,101.5604,313.3072,0,U,27424,999,28786,.71293474E-4,.309E-5,0
CZ-4B R/B,2002-024C,2026-07-18T14:17:02.510880,14.14568458,.00502935,98.8683,252.2084,12.3885,152.2521,0,U,27432,999,24774,.17415001E-4,-.11E-6,0
MIDORI II (ADEOS-II),2002-056A,2026-07-18T08:36:22.947552,14.29363881,.00013511,98.7896,158.8867,37.2300,322.8975,0,U,27597,999,22896,.53179078E-4,.9E-6,0
H-2A R/B,2002-056E,2026-07-18T03:00:50.811840,14.33834808,.00710284,98.3330,154.6753,132.2936,238.6642,0,U,27601,999,23280,.56371616E-4,.12E-5,0
CZ-4B R/B,2003-049C,2026-07-18T10:47:51.201024,14.55117301,.00478644,98.6912,199.5432,191.2459,168.7671,0,U,28059,999,20561,.37413316E-4,.112E-5,0
CZ-2C R/B,2004-012C,2026-07-18T05:04:02.501184,15.85865778,.00110199,97.7049,278.6452,183.0789,177.0415,0,U,28222,999,22480,.42633931E-3,.10502E-2,0
SL-16 R/B,2004-021B,2026-07-18T15:04:26.092992,14.14616376,.00061956,71.0030,317.7044,222.1236,137.9411,0,U,28353,999,14135,-.33092302E-4,-.111E-5,0
CZ-4B R/B,2004-035C,2026-07-18T01:13:04.164960,15.31014525,.00294544,97.3352,231.7827,222.0369,137.8613,0,U,28415,999,19984,.13131689E-3,.3907E-4,0
CZ-2C R/B,2004-046B,2026-07-18T11:07:42.249216,14.27033861,.01403016,98.1912,106.2849,127.7807,233.6179,0,U,28480,999,12715,.39827665E-4,.68E-6,0
ARIANE 5 R/B,2004-049H,2026-07-18T10:51:15.537888,14.85480833,.00825372,98.2744,12.9185,287.5511,71.6698,0,U,28499,999,16520,.3430287E-4,.248E-5,0
CZ-2D R/B,2005-024B,2026-07-18T01:00:33.901056,15.73001081,.00028551,97.3468,220.0899,185.3434,174.7800,0,U,28738,999,16018,.33432129E-3,.45527E-3,0
ALOS (DAICHI),2006-002A,2026-07-18T07:58:08.708736,14.70105367,.00009039,98.1339,154.8065,106.5315,253.5990,0,U,28931,999,9267,.88382191E-4,.482E-5,0
